[{"OBJECT_NAME":"HERMES-3","OBJECT_ID":"2025-052BR","EPOCH":"2026-03-09T22:30:01.073952","MEAN_MOTION":15.30039786,"ECCENTRICITY":0.00079928,"INCLINATION":97.3987,"RA_OF_ASC_NODE":324.6131,"ARG_OF_PERICENTER":112.9583,"MEAN_ANOMALY":247.2502,"EPHEMERIS_TYPE":0,"CLASSIFICATION_TYPE":"U","NORAD_CAT_ID":63835,"ELEMENT_SET_NO":999,"REV_AT_EPOCH":5486,"BSTAR":0.0006995793,"MEAN_MOTION_DOT":0.00020316,"MEAN_MOTION_DDOT":0},{"OBJECT_NAME":"STARLINK-35486","OBJECT_ID":"2025-245V","EPOCH":"2026-03-09T20:54:15.291648","MEAN_MOTION":15.30206571,"ECCENTRICITY":8.053e-5,"INCLINATION":53.1576,"RA_OF_ASC_NODE":283.0968,"ARG_OF_PERICENTER":88.0724,"MEAN_ANOMALY":272.0369,"EPHEMERIS_TYPE":0,"CLASSIFICATION_TYPE":"U","NORAD_CAT_ID":66253,"ELEMENT_SET_NO":999,"REV_AT_EPOCH":2107,"BSTAR":0.00090593905,"MEAN_MOTION_DOT":0.00026574,"MEAN_MOTION_DDOT":0}]
